{
  "type": "FeatureCollection",
  "features": [
    {
      "type": "Feature",
      "properties": {
        "title": "수도권 탐구 권역",
        "note": "수도권 지역 현장조사 범위를 예시로 그린 폴리곤"
      },
      "geometry": {
        "type": "Polygon",
        "coordinates": [
          [
            [126.55, 37.18],
            [127.42, 37.18],
            [127.42, 37.84],
            [126.55, 37.84],
            [126.55, 37.18]
          ]
        ]
      }
    },
    {
      "type": "Feature",
      "properties": {
        "title": "동남권 탐구 권역",
        "note": "부산·울산·경남 일부를 예시로 그린 폴리곤"
      },
      "geometry": {
        "type": "Polygon",
        "coordinates": [
          [
            [128.62, 34.82],
            [129.42, 34.82],
            [129.42, 35.63],
            [128.62, 35.63],
            [128.62, 34.82]
          ]
        ]
      }
    }
  ]
}
